{
  "name": "SATGUS",
  "line1": "1 62713U 25009DJ  26039.21299553  .00007292  00000+0  60105-3 0  9995",
  "line2": "2 62713  97.7115 121.7634 0002936 200.8029 159.3075 14.99339602 58229",
  "fetched_at": "2026-02-09T00:26:06.751498+00:00"
}